start=new Date('2022-03-15T00:00:00.000Z').valueOf();
sats=[{"GP_ID":"198767194","OBJECT_NAME":"STARLINK-24","OBJECT_TYPE":"PAYLOAD","TLE_LINE2":"2 44238  53.0046 190.7109 0002579  29.4195 330.6945 15.23159740153748","ELEMENT_SET_NO":"999","PERIAPSIS":"494.546","MEAN_ELEMENT_THEORY":"SGP4","EPHEMERIS_TYPE":"0","BSTAR":"0.00199120000000","FILE":"3359665","MEAN_ANOMALY":"330.6945","CENTER_NAME":"EARTH","APOAPSIS":"498.092","NORAD_CAT_ID":"44238","COUNTRY_CODE":"US","ECCENTRICITY":"0.00025790","REF_FRAME":"TEME","MEAN_MOTION_DDOT":"0.0000000000000","SITE":"AFETR","OBJECT_ID":"2019-029D","RA_OF_ASC_NODE":"190.7109","TIME_SYSTEM":"UTC","PERIOD":"94.540","EPOCH":"2022-03-14T17:29:59.322048","REV_AT_EPOCH":"15374","CLASSIFICATION_TYPE":"U","LAUNCH_DATE":"2019-05-24","INCLINATION":"53.0046","SEMIMAJOR_AXIS":"6874.454","TLE_LINE1":"1 44238U 19029D   22073.72915882  .00047632  00000-0  19912-2 0  9994","DECAY_DATE":null,"ARG_OF_PERICENTER":"29.4195","MEAN_MOTION":"15.23159740","MEAN_MOTION_DOT":"0.00047632","RCS_SIZE":"LARGE"},{"LAUNCH_DATE":"2019-05-24","CLASSIFICATION_TYPE":"U","INCLINATION":"52.9764","SEMIMAJOR_AXIS":"6847.307","DECAY_DATE":null,"TLE_LINE1":"1 44249U 19029Q   22073.67734731  .00063726  00000-0  20141-2 0  9990","ARG_OF_PERICENTER":"244.3464","MEAN_MOTION":"15.32226994","RCS_SIZE":"LARGE","MEAN_MOTION_DOT":"0.00063726","OBJECT_ID":"2019-029Q","SITE":"AFETR","MEAN_MOTION_DDOT":"0.0000000000000","RA_OF_ASC_NODE":"153.3569","TIME_SYSTEM":"UTC","PERIOD":"93.981","EPOCH":"2022-03-14T16:15:22.807584","REV_AT_EPOCH":"15495","EPHEMERIS_TYPE":"0","BSTAR":"0.00201410000000","FILE":"3359665","MEAN_ANOMALY":"115.7298","CENTER_NAME":"EARTH","APOAPSIS":"470.744","NORAD_CAT_ID":"44249","COUNTRY_CODE":"US","ECCENTRICITY":"0.00022970","REF_FRAME":"TEME","GP_ID":"198765443","OBJECT_NAME":"STARLINK-61","OBJECT_TYPE":"PAYLOAD","TLE_LINE2":"2 44249  52.9764 153.3569 0002297 244.3464 115.7298 15.32226994154957","ELEMENT_SET_NO":"999","MEAN_ELEMENT_THEORY":"SGP4","PERIAPSIS":"467.599"},{"MEAN_MOTION_DOT":"0.00043430","RCS_SIZE":"LARGE","MEAN_MOTION":"15.25733435","ARG_OF_PERICENTER":"21.5699","DECAY_DATE":null,"TLE_LINE1":"1 44252U 19029T   22073.62586558  .00043430  00000-0  16833-2 0  9994","SEMIMAJOR_AXIS":"6866.721","INCLINATION":"52.9999","CLASSIFICATION_TYPE":"U","LAUNCH_DATE":"2019-05-24","REV_AT_EPOCH":"15440","EPOCH":"2022-03-14T15:01:14.786112","PERIOD":"94.381","TIME_SYSTEM":"UTC","RA_OF_ASC_NODE":"188.6754","MEAN_MOTION_DDOT":"0.0000000000000","SITE":"AFETR","OBJECT_ID":"2019-029T","REF_FRAME":"TEME","COUNTRY_CODE":"US","ECCENTRICITY":"0.00049850","NORAD_CAT_ID":"44252","APOAPSIS":"492.009","MEAN_ANOMALY":"338.5507","CENTER_NAME":"EARTH","FILE":"3359665","BSTAR":"0.00168330000000","EPHEMERIS_TYPE":"0","MEAN_ELEMENT_THEORY":"SGP4","PERIAPSIS":"485.163","ELEMENT_SET_NO":"999","TLE_LINE2":"2 44252  52.9999 188.6754 0004985  21.5699 338.5507 15.25733435154402","OBJECT_TYPE":"PAYLOAD","OBJECT_NAME":"STARLINK-71","GP_ID":"198765692"},{"RA_OF_ASC_NODE":"86.0897","TIME_SYSTEM":"UTC","SITE":"AFETR","MEAN_MOTION_DDOT":"0.0000000000000","OBJECT_ID":"2019-029AZ","PERIOD":"92.856","EPOCH":"2022-03-14T07:47:16.346400","REV_AT_EPOCH":"15535","LAUNCH_DATE":"2019-05-24","CLASSIFICATION_TYPE":"U","INCLINATION":"53.0118","DECAY_DATE":null,"TLE_LINE1":"1 44282U 19029AZ  22073.32449475  .00205333  00000-0  34168-2 0  9993","ARG_OF_PERICENTER":"55.0285","SEMIMAJOR_AXIS":"6792.547","MEAN_MOTION":"15.50792674","RCS_SIZE":"LARGE","MEAN_MOTION_DOT":"0.00205333","OBJECT_NAME":"STARLINK-80","GP_ID":"198731474","TLE_LINE2":"2 44282  53.0118  86.0897 0007560  55.0285 305.1431 15.50792674155353","OBJECT_TYPE":"PAYLOAD","PERIAPSIS":"409.277","MEAN_ELEMENT_THEORY":"SGP4","ELEMENT_SET_NO":"999","EPHEMERIS_TYPE":"0","CENTER_NAME":"EARTH","MEAN_ANOMALY":"305.1431","BSTAR":"0.00341680000000","FILE":"3359259","APOAPSIS":"419.548","NORAD_CAT_ID":"44282","REF_FRAME":"TEME","COUNTRY_CODE":"US","ECCENTRICITY":"0.00075600"},{"PERIAPSIS":"546.343","MEAN_ELEMENT_THEORY":"SGP4","ELEMENT_SET_NO":"999","TLE_LINE2":"2 44713  53.0515 242.6114 0001243  75.6794 284.4333 15.06403291129301","OBJECT_TYPE":"PAYLOAD","OBJECT_NAME":"STARLINK-1007","GP_ID":"198766734","REF_FRAME":"TEME","COUNTRY_CODE":"US","ECCENTRICITY":"0.00012430","APOAPSIS":"548.064","NORAD_CAT_ID":"44713","CENTER_NAME":"EARTH","MEAN_ANOMALY":"284.4333","BSTAR":"0.00021061000000","FILE":"3359665","EPHEMERIS_TYPE":"0","EPOCH":"2022-03-14T17:50:15.028800","REV_AT_EPOCH":"12930","PERIOD":"95.592","RA_OF_ASC_NODE":"242.6114","TIME_SYSTEM":"UTC","MEAN_MOTION_DDOT":"0.0000000000000","SITE":"AFETR","OBJECT_ID":"2019-074A","RCS_SIZE":"LARGE","MEAN_MOTION_DOT":"0.00002857","MEAN_MOTION":"15.06403291","TLE_LINE1":"1 44713U 19074A   22073.74322950  .00002857  00000-0  21061-3 0  9991","DECAY_DATE":null,"ARG_OF_PERICENTER":"75.6794","SEMIMAJOR_AXIS":"6925.338","LAUNCH_DATE":"2019-11-11","CLASSIFICATION_TYPE":"U","INCLINATION":"53.0515"},{"GP_ID":"198765982","OBJECT_NAME":"STARLINK-1008","OBJECT_TYPE":"PAYLOAD","TLE_LINE2":"2 44714  53.0556 242.7216 0001357  76.0523 284.0617 15.06394883129309","ELEMENT_SET_NO":"999","MEAN_ELEMENT_THEORY":"SGP4","PERIAPSIS":"546.289","EPHEMERIS_TYPE":"0","BSTAR":"0.00000092439000","FILE":"3359665","CENTER_NAME":"EARTH","MEAN_ANOMALY":"284.0617","APOAPSIS":"548.169","NORAD_CAT_ID":"44714","COUNTRY_CODE":"US","ECCENTRICITY":"0.00013570","REF_FRAME":"TEME","MEAN_MOTION_DDOT":"0.0000000000000","SITE":"AFETR","OBJECT_ID":"2019-074B","RA_OF_ASC_NODE":"242.7216","TIME_SYSTEM":"UTC","PERIOD":"95.592","EPOCH":"2022-03-14T17:19:46.210368","REV_AT_EPOCH":"12930","LAUNCH_DATE":"2019-11-11","CLASSIFICATION_TYPE":"U","INCLINATION":"53.0556","SEMIMAJOR_AXIS":"6925.364","TLE_LINE1":"1 44714U 19074B   22073.72206262 -.00000268  00000-0  92439-6 0  9992","DECAY_DATE":null,"ARG_OF_PERICENTER":"76.0523","MEAN_MOTION":"15.06394883","RCS_SIZE":"LARGE","MEAN_MOTION_DOT":"-0.00000268"},{"REV_AT_EPOCH":"12930","EPOCH":"2022-03-14T18:39:23.241312","RA_OF_ASC_NODE":"242.4648","TIME_SYSTEM":"UTC","MEAN_MOTION_DDOT":"0.0000000000000","SITE":"AFETR","OBJECT_ID":"2019-074C","PERIOD":"95.592","MEAN_MOTION":"15.06402679","MEAN_MOTION_DOT":"0.00000026","RCS_SIZE":"LARGE","LAUNCH_DATE":"2019-11-11","CLASSIFICATION_TYPE":"U","INCLINATION":"53.0545","DECAY_DATE":null,"TLE_LINE1":"1 44715U 19074C   22073.77735233  .00000026  00000-0  20640-4 0  9997","ARG_OF_PERICENTER":"83.2506","SEMIMAJOR_AXIS":"6925.340","PERIAPSIS":"546.225","MEAN_ELEMENT_THEORY":"SGP4","ELEMENT_SET_NO":"999","OBJECT_NAME":"STARLINK-1009","GP_ID":"198766231","TLE_LINE2":"2 44715  53.0545 242.4648 0001416  83.2506 276.8644 15.06402679129303","OBJECT_TYPE":"PAYLOAD","APOAPSIS":"548.186","NORAD_CAT_ID":"44715","REF_FRAME":"TEME","COUNTRY_CODE":"US","ECCENTRICITY":"0.00014160","EPHEMERIS_TYPE":"0","CENTER_NAME":"EARTH","MEAN_ANOMALY":"276.8644","BSTAR":"0.00002064000000","FILE":"3359665"},{"ELEMENT_SET_NO":"999","MEAN_ELEMENT_THEORY":"SGP4","PERIAPSIS":"546.332","GP_ID":"198766983","OBJECT_NAME":"STARLINK-1010","OBJECT_TYPE":"PAYLOAD","TLE_LINE2":"2 44716  53.0523 242.3892 0001265  85.8170 274.2964 15.06401944129296","APOAPSIS":"548.084","NORAD_CAT_ID":"44716","COUNTRY_CODE":"US","ECCENTRICITY":"0.00012650","REF_FRAME":"TEME","EPHEMERIS_TYPE":"0","BSTAR":"0.00032831000000","FILE":"3359665","MEAN_ANOMALY":"274.2964","CENTER_NAME":"EARTH","REV_AT_EPOCH":"12929","EPOCH":"2022-03-14T19:05:54.870144","SITE":"AFETR","MEAN_MOTION_DDOT":"0.0000000000000","OBJECT_ID":"2019-074D","RA_OF_ASC_NODE":"242.3892","TIME_SYSTEM":"UTC","PERIOD":"95.592","MEAN_MOTION":"15.06401944","MEAN_MOTION_DOT":"0.00004612","RCS_SIZE":"LARGE","LAUNCH_DATE":"2019-11-11","CLASSIFICATION_TYPE":"U","INCLINATION":"53.0523","SEMIMAJOR_AXIS":"6925.343","DECAY_DATE":null,"TLE_LINE1":"1 44716U 19074D   22073.79577396  .00004612  00000-0  32831-3 0  9993","ARG_OF_PERICENTER":"85.8170"},{"ELEMENT_SET_NO":"999","MEAN_ELEMENT_THEORY":"SGP4","PERIAPSIS":"545.916","GP_ID":"198767234","OBJECT_NAME":"STARLINK-1011","OBJECT_TYPE":"PAYLOAD","TLE_LINE2":"2 44717  53.0540 262.3760 0001843  62.0049 298.1126 15.06407077129036","NORAD_CAT_ID":"44717","APOAPSIS":"548.468","COUNTRY_CODE":"US","ECCENTRICITY":"0.00018430","REF_FRAME":"TEME","EPHEMERIS_TYPE":"0","FILE":"3359665","BSTAR":"0.00000216970000","MEAN_ANOMALY":"298.1126","CENTER_NAME":"EARTH","EPOCH":"2022-03-14T19:03:15.555456","REV_AT_EPOCH":"12903","OBJECT_ID":"2019-074E","SITE":"AFETR","MEAN_MOTION_DDOT":"0.0000000000000","TIME_SYSTEM":"UTC","RA_OF_ASC_NODE":"262.3760","PERIOD":"95.592","MEAN_MOTION":"15.06407077","MEAN_MOTION_DOT":"-0.00000249","RCS_SIZE":"LARGE","INCLINATION":"53.0540","LAUNCH_DATE":"2019-11-11","CLASSIFICATION_TYPE":"U","SEMIMAJOR_AXIS":"6925.327","ARG_OF_PERICENTER":"62.0049","DECAY_DATE":null,"TLE_LINE1":"1 44717U 19074E   22073.79393004 -.00000249  00000-0  21697-5 0  9999"},{"EPHEMERIS_TYPE":"0","CENTER_NAME":"EARTH","MEAN_ANOMALY":"279.1633","BSTAR":"0.00002690400000","FILE":"3359665","APOAPSIS":"548.234","NORAD_CAT_ID":"44718","REF_FRAME":"TEME","ECCENTRICITY":"0.00014470","COUNTRY_CODE":"US","OBJECT_NAME":"STARLINK-1012","GP_ID":"198765483","TLE_LINE2":"2 44718  53.0544 242.5138 0001447  80.9520 279.1633 15.06393935129302","OBJECT_TYPE":"PAYLOAD","MEAN_ELEMENT_THEORY":"SGP4","PERIAPSIS":"546.230","ELEMENT_SET_NO":"999","LAUNCH_DATE":"2019-11-11","CLASSIFICATION_TYPE":"U","INCLINATION":"53.0544","TLE_LINE1":"1 44718U 19074F   22073.76629650  .00000119  00000-0  26904-4 0  9996","DECAY_DATE":null,"ARG_OF_PERICENTER":"80.9520","SEMIMAJOR_AXIS":"6925.367","MEAN_MOTION":"15.06393935","RCS_SIZE":"LARGE","MEAN_MOTION_DOT":"0.00000119","RA_OF_ASC_NODE":"242.5138","TIME_SYSTEM":"UTC","SITE":"AFETR","OBJECT_ID":"2019-074F","MEAN_MOTION_DDOT":"0.0000000000000","PERIOD":"95.593","REV_AT_EPOCH":"12930","EPOCH":"2022-03-14T18:23:28.017600"}];
